      2.10          N: GNSS NAV DATA                        RINEX VERSION / TYPE
fic2rin                                 12/25/2020 00:17:35 PGM / RUN BY / DATE
                                                            END OF HEADER
 6 20 12 24 22  0  0.0-4.406087100506e-06-3.410605131648e-13 0.000000000000e+00
    5.000000000000e+00-4.321875000000e+01 3.805515657859e-09-1.914598089987e+00
   -2.199783921242e-06 2.147544873878e-03 9.121373295784e-06 5.153681303024e+03
    4.248000000000e+05 3.539025783539e-08-6.917150152211e-01 3.166496753693e-08
    9.823242958527e-01 2.177187500000e+02-1.141043165691e+00-7.701035064736e-09
    8.321775206769e-11 1.000000000000e+00 2.137000000000e+03 0.000000000000e+00
    2.400000000000e+00 0.000000000000e+00 4.190951585770e-09 5.000000000000e+00
    4.176000000000e+05 4.000000000000e+00
 5 20 12 24 22  0  0.0-2.920860424638e-05-1.023181539495e-12 0.000000000000e+00
    6.000000000000e+01 1.593750000000e+00 4.732697135832e-09 5.185144969529e-01
    2.011656761169e-07 6.024222122505e-03 6.774440407753e-06 5.153784875870e+03
    4.248000000000e+05-8.009374141693e-08 3.202558743426e-01 7.078051567078e-08
    9.549131931103e-01 2.461250000000e+02 8.915627179659e-01-8.218913779320e-09
    3.289422731946e-10 1.000000000000e+00 2.137000000000e+03 0.000000000000e+00
    2.400000000000e+00 0.000000000000e+00-1.117587089539e-08 6.000000000000e+01
    4.176000000000e+05 4.000000000000e+00
 3 20 12 24 22  0  0.0-3.849994391203e-05-9.890754881781e-12 0.000000000000e+00
    1.040000000000e+02 3.656250000000e+00 4.405183493574e-09 2.780196324919e+00
    2.104789018631e-07 3.251092275605e-03 6.979331374168e-06 5.153681093216e+03
    4.248000000000e+05 1.490116119385e-08 3.550336385875e-01-4.097819328308e-08
    9.679659436212e-01 2.477812500000e+02 8.855007014357e-01-7.929973172356e-09
    4.153744448700e-10 1.000000000000e+00 2.137000000000e+03 0.000000000000e+00
    2.400000000000e+00 0.000000000000e+00 1.862645149231e-09 1.040000000000e+02
    4.176000000000e+05 4.000000000000e+00
16 20 12 24 22  0  0.0-2.551353536546e-04-5.456968210638e-12 0.000000000000e+00
    1.400000000000e+01 7.128125000000e+01 4.453042629957e-09 7.783132365104e-01
    3.995373845100e-06 1.192382315639e-02 4.559755325317e-06 5.153623445511e+03
    4.248000000000e+05-7.636845111847e-08-2.697222088184e+00 1.247972249985e-07
    9.760024636088e-01 2.979687500000e+02 6.358147590711e-01-8.314274894351e-09
   -4.643050544549e-11 1.000000000000e+00 2.137000000000e+03 0.000000000000e+00
    2.400000000000e+00 0.000000000000e+00-1.071020960808e-08 1.400000000000e+01
    4.176000000000e+05 4.000000000000e+00
 8 20 12 24 22  0  0.0-4.090834408998e-06-1.364242052659e-12 0.000000000000e+00
    9.100000000000e+01-5.475000000000e+01 4.480900933224e-09-5.623830287105e-02
   -2.989545464516e-06 5.954813444987e-03 4.190951585770e-06 5.153767639160e+03
    4.248000000000e+05 1.210719347000e-07-1.756323120696e+00 1.490116119385e-08
    9.683173716538e-01 3.025625000000e+02-5.735144747799e-02-8.320703733566e-09
   -3.450143712334e-10 1.000000000000e+00 2.137000000000e+03 0.000000000000e+00
    3.400000000000e+00 0.000000000000e+00 5.122274160385e-09 9.100000000000e+01
    4.176000000000e+05 4.000000000000e+00
 4 20 12 24 22  0  0.0-1.671602949500e-04-3.183231456205e-12 0.000000000000e+00
    2.280000000000e+02-3.178125000000e+01 4.717696510996e-09-5.851163338610e-01
   -1.650303602219e-06 1.004941295832e-03 7.212162017822e-06 5.153598482132e+03
    4.248000000000e+05 3.911554813385e-08 1.434956214200e+00-1.676380634308e-08
    9.597887391906e-01 2.379375000000e+02-3.074135757156e+00-8.097837307428e-09
   -2.203663219990e-10 1.000000000000e+00 2.137000000000e+03 0.000000000000e+00
    2.400000000000e+00 0.000000000000e+00-4.190951585770e-09 9.960000000000e+02
    4.176000000000e+05 4.000000000000e+00
 9 20 12 24 22  0  0.0-3.052055835724e-04-4.320099833421e-12 0.000000000000e+00
    1.600000000000e+01-3.271875000000e+01 4.905561479183e-09 2.989043114101e-01
   -1.845881342888e-06 2.034007338807e-03 6.806105375290e-06 5.153591226578e+03
    4.248000000000e+05-1.117587089539e-08 1.385337419607e+00-4.842877388000e-08
    9.526009369784e-01 2.419375000000e+02 1.785071709459e+00-8.220699567991e-09
   -1.903650723265e-10 1.000000000000e+00 2.137000000000e+03 0.000000000000e+00
    2.400000000000e+00 0.000000000000e+00 1.396983861923e-09 1.600000000000e+01
    4.176000000000e+05 4.000000000000e+00
10 20 12 24 22  0  0.0-2.363882958889e-05-8.753886504564e-12 0.000000000000e+00
    5.500000000000e+01 6.875000000000e-01 4.498758819934e-09 1.954792522006e+00
    7.823109626770e-08 6.309283780865e-03 7.027760148048e-06 5.153666896820e+03
    4.248000000000e+05-1.527369022369e-07 3.520845888449e-01 2.421438694000e-08
    9.678755762456e-01 2.474375000000e+02-2.633939454402e+00-8.034620388475e-09
    3.632294156774e-10 1.000000000000e+00 2.137000000000e+03 0.000000000000e+00
    2.400000000000e+00 0.000000000000e+00 2.328306436539e-09 5.500000000000e+01
    4.176000000000e+05 4.000000000000e+00
19 20 12 24 22  0  0.0-6.094668060541e-05 5.002220859751e-12 0.000000000000e+00
    5.000000000000e+01-5.387500000000e+01 4.113028467002e-09 2.341571446341e+00
   -2.810731530190e-06 8.979742531665e-03 4.755333065987e-06 5.153611328125e+03
    4.248000000000e+05 1.173466444016e-07-1.635198395731e+00-5.029141902924e-08
    9.812603389404e-01 2.964687500000e+02 1.762254216299e+00-7.889257190657e-09
   -3.417999516257e-10 1.000000000000e+00 2.137000000000e+03 0.000000000000e+00
    2.400000000000e+00 0.000000000000e+00-1.536682248116e-08 5.000000000000e+01
    4.176000000000e+05 4.000000000000e+00
12 20 12 24 22  0  0.0 2.237875014544e-05-5.229594535194e-12 0.000000000000e+00
    2.800000000000e+01 6.656250000000e+01 4.288750072227e-09 2.638115435983e+00
    3.291293978691e-06 8.125049527735e-03 4.479661583900e-06 5.153585382462e+03
    4.248000000000e+05 2.980232238770e-08-2.716028884636e+00-1.378357410431e-07
    9.758663741915e-01 2.966562500000e+02 1.168659662132e+00-7.957831475623e-09
    2.714398779890e-11 1.000000000000e+00 2.137000000000e+03 0.000000000000e+00
    2.400000000000e+00 0.000000000000e+00-1.257285475731e-08 2.800000000000e+01
    4.176000000000e+05 4.000000000000e+00
13 20 12 24 22  0  0.0 7.852353155613e-05 3.979039320257e-12 0.000000000000e+00
    1.900000000000e+01-2.515625000000e+01 4.533045962417e-09-8.000584092555e-01
   -1.233071088791e-06 4.897679667920e-03 7.690861821175e-06 5.153682788849e+03
    4.248000000000e+05-1.117587089539e-08 1.531603053003e+00 9.685754776001e-08
    9.675192123273e-01 2.363750000000e+02 1.048088819895e+00-8.023905656449e-09
   -2.189376910622e-10 1.000000000000e+00 2.137000000000e+03 0.000000000000e+00
    2.400000000000e+00 0.000000000000e+00-1.164153218269e-08 1.900000000000e+01
    4.176000000000e+05 4.000000000000e+00
32 20 12 24 22  0  0.0 1.021753996611e-05 2.387423592154e-12 0.000000000000e+00
    2.500000000000e+01-2.440625000000e+01 4.865202655219e-09 6.141457399895e-01
   -1.367181539536e-06 4.354262840934e-03 7.353723049164e-06 5.153614986420e+03
    4.248000000000e+05-1.862645149231e-09 1.394695743133e+00 5.587935447693e-08
    9.566346351467e-01 2.360937500000e+02-2.466144523767e+00-8.206413258623e-09
   -2.535819912792e-10 1.000000000000e+00 2.137000000000e+03 0.000000000000e+00
    2.400000000000e+00 0.000000000000e+00 4.656612873077e-10 2.500000000000e+01
    4.176000000000e+05 4.000000000000e+00
29 20 12 24 22  0  0.0-2.625151537359e-04-7.389644451905e-12 0.000000000000e+00
    7.000000000000e+01-4.946875000000e+01 4.026596295327e-09-1.029605094271e-01
   -2.665445208549e-06 1.438768929802e-03 5.254521965981e-06 5.153707763672e+03
    4.248000000000e+05-1.862645149231e-08-1.668400538688e+00 1.862645149231e-08
    9.846492515765e-01 2.900625000000e+02 2.237615340701e+00-7.986761252093e-09
   -2.960837616486e-10 1.000000000000e+00 2.137000000000e+03 0.000000000000e+00
    2.400000000000e+00 0.000000000000e+00-1.024454832077e-08 7.000000000000e+01
    4.176000000000e+05 4.000000000000e+00
27 20 12 24 22  0  0.0-4.183733835816e-05-7.958078640513e-12 0.000000000000e+00
    3.900000000000e+01-5.450000000000e+01 4.367681931484e-09-1.263823033245e-01
   -2.838671207428e-06 8.719521574676e-03 4.347413778305e-06 5.153674472809e+03
    4.248000000000e+05 7.078051567078e-08-1.740323652334e+00 1.043081283569e-07
    9.768245840705e-01 3.006875000000e+02 5.642478308670e-01-8.303560162325e-09
   -3.468001599044e-10 1.000000000000e+00 2.137000000000e+03 0.000000000000e+00
    2.400000000000e+00 0.000000000000e+00 1.862645149231e-09 3.900000000000e+01
    4.176000000000e+05 4.000000000000e+00
31 20 12 24 22  0  0.0-8.965702727437e-05-2.387423592154e-12 0.000000000000e+00
    1.000000000000e+02 5.621875000000e+01 4.522331230391e-09 2.884703633222e+00
    2.883374691010e-06 9.956318885088e-03 1.112744212151e-05 5.153718973160e+03
    4.248000000000e+05-1.378357410431e-07 2.475133763302e+00-5.029141902924e-08
    9.566113220842e-01 1.624687500000e+02 2.231806258317e-01-7.776395346651e-09
   -8.250343659930e-11 1.000000000000e+00 2.137000000000e+03 0.000000000000e+00
    3.400000000000e+00 0.000000000000e+00-1.303851604462e-08 1.000000000000e+02
    4.176000000000e+05 4.000000000000e+00
30 20 12 24 22  0  0.0-3.578169271350e-04-6.252776074689e-12 0.000000000000e+00
    8.500000000000e+01 4.296875000000e+01 4.979850287896e-09-2.980841898796e+00
    2.281740307808e-06 4.742220509797e-03 1.027062535286e-05 5.153771850586e+03
    4.248000000000e+05-3.911554813385e-08 2.478202062812e+00-5.215406417847e-08
    9.374973377043e-01 1.724062500000e+02-2.846703663171e+00-8.061407218540e-09
   -6.500270762369e-11 1.000000000000e+00 2.137000000000e+03 0.000000000000e+00
    2.400000000000e+00 0.000000000000e+00 3.725290298462e-09 8.500000000000e+01
    4.176000000000e+05 4.000000000000e+00
